AGILA 2                 
1 24901U 97042A   08218.27703435 -.00000243  00000-0  10000-3 0  7215
2 24901   0.0226   4.0022 0005274 121.5166  74.3781  1.00272211 40141
INTELSAT 5 (IS-5)       
1 24916U 97046A   08217.88675201  .00000135  00000-0  00000+0 0  6099
2 24916   0.0121 321.9902 0001622 157.7988 179.3771  1.00272230 40196
EUROBIRD 4              
1 24931U 97049A   08219.80902235  .00000023  00000-0  10000-3 0  8401
2 24931   0.0310  82.9923 0007526  24.0367 143.9143  1.00274031 40096
METEOSAT-7              
1 24932U 97049B   08218.76940538  .00000058  00000-0  10000-3 0  4116
2 24932   4.4125  73.4661 0000375 134.7470  80.8083  1.00275644 40028
AMC-3 (GE-3)            
1 24936U 97050A   08217.29052432 -.00000207  00000-0  10000-3 0  5901
2 24936   0.0076 332.5330 0000721 168.1532 190.1104  1.00269820 40002
NSS-5                   
1 24957U 97053A   08217.59961840  .00000060  00000-0  10000-3 0  6459
2 24957   0.0151 167.1834 0002447 304.2578 240.9149  1.00271487 39801
ECHOSTAR 3              
1 25004U 97059A   08219.34033220 -.00000287  00000-0  10000-3 0  5334
2 25004   0.0434 278.3276 0001634 247.1769 210.7179  1.00269491 39730
TELSTAR 10 (APSTAR 2R)  
1 25010U 97062A   08219.00346656 -.00000108  00000-0  10000-3 0  5015
2 25010   0.0380 259.0415 0003673 232.3284 261.2612  1.00271726 39581
ASTRA 5A (SIRIUS 2)     
1 25049U 97071A   08218.98521086  .00000148  00000-0  10000-3 0  5120
2 25049   0.0206 148.1381 0003232 341.6788 211.1974  1.00270817 39321
INDOSTAR 1              
1 25050U 97071B   08217.24338426 -.00000355  00000-0  10000-3 0  8869
2 25050   3.0224  77.6457 0003583  77.5840 353.0838  1.00269953 39323
ASTRA 1G                
1 25071U 97076A   08215.00000000  .00000103  00000-0  00000+0 0  7283
2 25071   0.0660 116.9660 0003960 323.1120 250.0800  1.00264462 39101
GALAXY 8                
1 25086U 97078A   08218.36842334 -.00000204  00000-0  10000-3 0  6712
2 25086   5.4305  72.4062 0004464 220.3139 139.7722  0.99705930 38957
HGS-1 (ASIASAT 3)       
1 25126U 97086A   08212.69489475 -.00000277  00000-0  10000-3 0  1804
2 25126   1.2291 156.3805 0045503 159.3156 199.8006  1.00312909 39660
BRASILSAT B3            
1 25152U 98006A   08219.25392737 -.00000216  00000-0  00000+0 0  8062
2 25152   0.0700 125.2999 0002378   0.5805 196.6571  1.00270381 38546
INMARSAT 3-F5           
1 25153U 98006B   08219.14124319  .00000135  00000-0  10000-3 0  1450
2 25153   0.4575 340.7558 0003348 173.1923 236.8798  1.00272029 38518
ATLANTIC BIRD 4         
1 25237U 98013A   08218.92302477 -.00000066  00000-0  10000-3 0  8382
2 25237   0.0225  17.6600 0003535  75.6307 186.6222  1.00271172 38542
NSS-806                 
1 25239U 98014A   08219.21752067 -.00000267  00000-0  10000-3 0  3166
2 25239   0.0080  34.1579 0002466 100.1279 218.6194  1.00270878 38306
NILESAT 101             
1 25311U 98024A   08218.92826529 -.00000064  00000-0  10000-3 0  6045
2 25311   0.0676  95.1691 0004706  23.3995 163.4364  1.00272726 37905
COSMOS 2350             
1 25315U 98025A   08218.08897689 -.00000147  00000-0  10000-3 0  2444
2 25315   6.6125  65.9334 0005154 349.2586  10.8359  1.00263809 37623
ECHOSTAR 4              
1 25331U 98028A   08218.34657130 -.00000252  00000-0  10000-3 0  8295
2 25331   0.7042  33.8435 0003949 100.8134 227.3624  1.00273144 37656
CHINASTAR 1             
1 25354U 98033A   08219.62502303 -.00000213  00000-0  10000-3 0  2605
2 25354   0.0353 256.1499 0002854 215.6912 156.3621  1.00271427 41871
THOR III                
1 25358U 98035A   08218.00909154 -.00000019  00000-0  00000+0 0  3584
2 25358   0.0281 212.1295 0001807 266.4263 197.7686  1.00272766 37288
INTELSAT 805 (IS-805)   
1 25371U 98037A   08219.27665400 -.00000291  00000-0  10000-3 0  2489
2 25371   0.0633 263.2243 0003096 239.8401 216.1951  1.00270754 37145
SINOSAT 1 (XINNUO 1)    
1 25404U 98044A   08218.72187499 -.00000359  00000-0  10000-3 0  8223
2 25404   0.0510  71.3294 0002541  53.3422 200.3266  1.00273727 36995
ST-1                    
1 25460U 98049A   08218.59451278 -.00000218  00000-0  10000-3 0  4921
2 25460   0.0211  61.3188 0003661  76.7179 118.4701  1.00270216 36452
ASTRA 2A                
1 25462U 98050A   08217.86748560  .00000140  00000-0  00000+0 0  9672
2 25462   0.0417  98.0749 0003732 359.8469 196.3310  1.00273565 36437
INTELSAT 7 (IS-7)       
1 25473U 98052A   08218.85028508 -.00000033  00000-0  10000-3 0  6213
2 25473   0.0242  22.9696 0003014 102.5493 203.9613  1.00272422 36224
EUTELSAT W2             
1 25491U 98056A   08218.87631366  .00000098  00000-0  10000-3 0  5535
2 25491   0.0555   1.6854 0003463 118.6207 165.9564  1.00274444 36059
SIRIUS 3                
1 25492U 98056B   08217.88298111  .00000023  00000-0  10000-3 0  3854
2 25492   0.0685 107.2540 0001467  25.5319 143.7723  1.00271371 36104
EUROBIRD 2              
1 25495U 98057A   08217.88717145  .00000133  00000-0  10000-3 0  5057
2 25495   0.0701 351.4342 0003783 117.4235 189.7941  1.00270297 36018
AFRISTAR                
1 25515U 98063A   08215.73701355  .00000112  00000-0  10000-3 0  3948
2 25515   0.0369 321.4232 0002766 169.9218 106.6217  1.00271840 35770
AMC-5 (GE-5)            
1 25516U 98063B   08219.44997009 -.00000238  00000-0  10000-3 0  3225
2 25516   0.0261 213.5385 0002554 283.0726 261.7352  1.00271476 35856
INTELSAT 8 (IS-8)       
1 25522U 98065A   08219.47746924 -.00000062  00000-0  10000-3 0  5211
2 25522   0.0457 270.4041 0002633 220.3225 162.5159  1.00271317 35809
BONUM 1                 
1 25546U 98068A   08218.89898293  .00000073  00000-0  10000-3 0   645
2 25546   0.0676  97.1903 0002889 344.5328 252.6613  1.00269283 35620
SAT MEX 5               
1 25558U 98070A   08219.42176689 -.00000018  00000-0  10000-3 0  3473
2 25558   0.0163 102.5360 0000847  56.6152 191.1560  1.00271435 35620
GALAXY 26 (G-26)        
1 25626U 99005A   08219.20158516 -.00000168  00000-0  10000-3 0  3558
2 25626   0.0121  91.8261 0002595  36.3587 166.4114  1.00269336 34715
JCSAT 6                 
1 25630U 99006A   08215.71046854 -.00000372  00000-0  10000-3 0  3981
2 25630   0.0243 226.5762 0001019 266.5412 198.2972  1.00269598 34548
ARABSAT 3A              
1 25638U 99009A   08217.88675000  .00000134  00000-0  00000+0 0  4614
2 25638   0.0311 151.3912 0005666  20.5039 126.9264  1.00274342 34634
SKYNET 4E               
1 25639U 99009B   08219.08774605  .00000143  00000-0  10000-3 0  4255
2 25639   4.7189  53.1897 0002545  76.3139 252.5655  1.00274914 34616
ASIASAT 3S              
1 25657U 99013A   08219.67964212 -.00000338  00000-0  10000-3 0  1120
2 25657   0.0496 252.1172 0001629 250.7295 162.8570  1.00269201 34405
INSAT-2E (APR-1)        
1 25666U 99016A   08218.72811499 -.00000172  00000-0  10000-3 0  9715
2 25666   0.1132  84.8967 0003179 148.1455  66.7169  1.00270789 34336
EUTELSAT W6             
1 25673U 99018A   08217.83445181  .00000120  00000-0  10000-3 0  6233
2 25673   0.0688 350.9104 0003904 133.1106 151.7216  1.00274242 34158
NIMIQ 1                 
1 25740U 99027A   08219.47738147 -.00000178  00000-0  10000-3 0  5296
2 25740   0.0334 125.2211 0002833  17.8645 252.9558  1.00269684 33795
ASTRA 1H                
1 25785U 99033A   08215.00000000  .00000103  00000-0  00000+0 0  7099
2 25785   0.0950 138.9850 0004198 336.7110 214.4630  1.00264746 33466
TELKOM 1                
1 25880U 99042A   08216.73732306 -.00000357  00000-0  10000-3 0  5700
2 25880   0.0143 137.5430 0002133  44.8009 143.6915  1.00267939 32944
KOREASAT 3              
1 25894U 99046A   08219.67016853 -.00000366  00000-0  10000-3 0  1804
2 25894   0.0336 258.4325 0000703 334.0763  80.4086  1.00269982 31745
YAMAL 102               
1 25897U 99047B   08219.31740700 -.00000233  00000-0  10000-3 0  9502
2 25897   4.6349  74.1858 0002758  51.3717  33.6194  1.00268864 32745
ECHOSTAR 5              
1 25913U 99050A   08218.28229861  .00000049  00000-0  10000-3 0  5858
2 25913   0.0302 263.1907 0002941 251.8156 131.9452  1.00274074 32475
GALAXY 27 (G-27)        
1 25922U 99052A   08218.28229832  .00000050  00000-0  10000-3 0  3780
2 25922   0.0093  84.7869 0001675  56.3851 145.6320  1.00271001 32450
ABS 1 (LMI 1)           
1 25924U 99053A   08219.61935100 -.00000091  00000-0  10000-3 0  9954
2 25924   0.0403  65.6369 0001947  39.7342 148.0698  1.00271715 32493
DIRECTV 1R              
1 25937U 99056A   08219.37816902 -.00000262  00000-0  00000+0 0  5368
2 25937   0.0042 163.4279 0002100 336.3836 239.0807  1.00269762 32356
TELSTAR 12 (ORION 2)    
1 25949U 99059A   08217.04825538 -.00000132  00000-0  10000-3 0  5632
2 25949   0.0057 342.6283 0002987 146.3105 186.3798  1.00270982 32193
AMC-4 (GE-4)            
1 25954U 99060A   08218.39935076 -.00000122  00000-0  00000+0 0  5384
2 25954   0.0054 270.4124 0002652 211.9828 234.6656  1.00271250 32052
GALAXY 11 (G-11)        
1 26038U 99071A   08217.14060281 -.00000186  00000-0  10000-3 0  5553
2 26038   0.0450 256.8818 0000560  43.5595 332.2398  1.00270272 31667
GALAXY 10R (G-10R)      
1 26056U 00002A   08217.80038101 -.00000313  00000-0  10000-3 0  4324
2 26056   0.2654  85.7312 0002706  24.8455 249.4340  0.99641922 31313
ZHONGXING-22            
1 26058U 00003A   08219.45116484 -.00000296  00000-0  00000+0 0  8757
2 26058   0.3009  78.4413 0001725 107.1946  30.0388  1.00271518 31309
HISPASAT 1C             
1 26071U 00007A   08212.99022561 -.00000230  00000-0  10000-3 0  2016
2 26071   0.0335 350.9845 0004172 110.2293 174.2532  1.00269483 31163
GARUDA 1                
1 26089U 00011A   08219.77040876 -.00000361  00000-0  10000-3 0  2567
2 26089   1.1543 259.6993 0003674 338.2191 118.0139  1.00270668 31110
SUPERBIRD 4             
1 26095U 00012A   08219.35919847 -.00000097  00000-0  10000-3 0  5651
2 26095   0.0108 161.2527 0001389 336.0902 109.2205  1.00271555 31066
